NORAD_CAT_ID,OBJECT_NAME,OBJECT_TYPE,EPOCH,MEAN_MOTION,ECCENTRICITY,INCLINATION,RA_OF_ASC_NODE,ARG_OF_PERICENTER,MEAN_ANOMALY,BSTAR,MEAN_MOTION_DOT,MEAN_MOTION_DDOT,TLE_LINE0,TLE_LINE1,TLE_LINE2,SEMIMAJOR_AXIS,PERIOD,APOGEE,PERIGEE,DECAYED
52998.0,STARLINK-4254,PAYLOAD,2024-05-16 09:55:50,15.08844901,0.0001499,53.216,187.1058,90.2598,269.8565,0.00024797,3.661e-05,0.0,0 STARLINK-4254,1 52998U 22076N   24137.41377740  .00003661  00000-0  24797-3 0  9998,2 52998  53.2160 187.1058 0001499  90.2598 269.8565 15.08844901103339,6917.865,95.437,540.767,538.693,0.0
52998.0,STARLINK-4254,PAYLOAD,2024-05-16 22:38:54,15.08857623,0.0001481,53.2161,184.7268,98.2966,261.8194,0.00037706,5.721e-05,0.0,0 STARLINK-4254,1 52998U 22076N   24137.94368949  .00005721  00000-0  37706-3 0  9990,2 52998  53.2161 184.7268 0001481  98.2966 261.8194 15.08857623102945,6917.827,95.436,540.716,538.667,0.0
52998.0,STARLINK-4254,PAYLOAD,2024-05-17 12:57:23,15.08834412,0.0001329,53.2149,182.049,89.3539,270.7606,8.2886e-05,1.031e-05,0.0,0 STARLINK-4254,1 52998U 22076N   24138.53985620  .00001031  00000-0  82886-4 0  9997,2 52998  53.2149 182.0490 0001329  89.3539 270.7606 15.08834412103508,6917.897,95.438,540.682,538.843,0.0
52998.0,STARLINK-4254,PAYLOAD,2024-05-18 09:37:25,15.08819444,0.000147,53.2157,178.1838,85.3088,274.8072,-9.0422e-05,-1.726e-05,0.0,0 STARLINK-4254,1 52998U 22076N   24139.40099466 -.00001726  00000-0 -90422-4 0  9996,2 52998  53.2157 178.1838 0001470  85.3088 274.8072 15.08819444103635,6917.943,95.439,540.825,538.791,0.0
52998.0,STARLINK-4254,PAYLOAD,2024-05-18 19:09:44,15.08832317,0.0001339,53.2151,176.3975,89.0296,271.085,3.7915e-05,3.15e-06,0.0,0 STARLINK-4254,1 52998U 22076N   24139.79843013  .00000315  00000-0  37915-4 0  9992,2 52998  53.2151 176.3975 0001339  89.0296 271.0850 15.08832317103690,6917.904,95.438,540.695,538.843,0.0
52998.0,STARLINK-4254,PAYLOAD,2024-05-19 07:52:50,15.08829494,0.0001597,53.2155,174.0229,100.7892,259.328,0.00020406,2.96e-05,0.0,0 STARLINK-4254,1 52998U 22076N   24140.32835672  .00002960  00000-0  20406-3 0  9999,2 52998  53.2155 174.0229 0001597 100.7892 259.3280 15.08829494103306,6917.913,95.438,540.882,538.673,0.0
52998.0,STARLINK-4254,PAYLOAD,2024-05-20 10:54:23,15.08828435,0.0001766,53.2157,168.967,63.3426,296.7747,-5.6938e-05,-1.194e-05,0.0,0 STARLINK-4254,1 52998U 22076N   24141.45443733 -.00001194  00000-0 -56938-4 0  9997,2 52998  53.2157 168.9670 0001766  63.3426 296.7747 15.08828435103942,6917.916,95.438,541.002,538.559,0.0
52998.0,STARLINK-4254,PAYLOAD,2024-05-21 09:09:47,15.08835736,0.0001528,53.2153,164.8092,93.98,266.1367,-0.0002189,-3.77e-05,0.0,0 STARLINK-4254,1 52998U 22076N   24142.38180093 -.00003770  00000-0 -21890-3 0  9997,2 52998  53.2153 164.8092 0001528  93.9800 266.1367 15.08835736103617,6917.893,95.438,540.815,538.701,0.0
52998.0,STARLINK-4254,PAYLOAD,2024-05-22 01:03:39,15.08830244,0.0001502,53.2151,161.8284,82.0075,278.1087,0.00040813,6.212e-05,0.0,0 STARLINK-4254,1 52998U 22076N   24143.04420666  .00006212  00000-0  40813-3 0  9992,2 52998  53.2151 161.8284 0001502  82.0075 278.1087 15.08830244104184,6917.91,95.438,540.814,538.736,0.0
52998.0,STARLINK-4254,PAYLOAD,2024-05-22 07:25:11,15.08843807,0.0001342,53.2146,160.6413,83.8879,276.2266,0.00037868,5.745e-05,0.0,0 STARLINK-4254,1 52998U 22076N   24143.30916266  .00005745  00000-0  37868-3 0  9993,2 52998  53.2146 160.6413 0001342  83.8879 276.2266 15.08843807104224,6917.869,95.437,540.662,538.805,0.0
52998.0,STARLINK-4254,PAYLOAD,2024-05-23 10:26:44,15.08856755,0.0001363,53.2147,155.5863,84.4127,275.7021,0.00036681,5.557e-05,0.0,0 STARLINK-4254,1 52998U 22076N   24144.43523481  .00005557  00000-0  36681-3 0  9994,2 52998  53.2147 155.5863 0001363  84.4127 275.7021 15.08856755104390,6917.829,95.436,540.637,538.751,0.0
52998.0,STARLINK-4254,PAYLOAD,2024-05-24 05:31:21,15.08853259,0.0001368,53.2143,152.0151,100.8128,259.3018,0.00013043,1.789e-05,0.0,0 STARLINK-4254,1 52998U 22076N   24145.23010865  .00001789  00000-0  13043-3 0  9990,2 52998  53.2143 152.0151 0001368 100.8128 259.3018 15.08853259104511,6917.84,95.437,540.651,538.759,0.0
52998.0,STARLINK-4254,PAYLOAD,2024-05-24 10:17:30,15.08851553,0.0001387,53.2151,151.1242,99.5953,260.5196,8.5616e-05,1.075e-05,0.0,0 STARLINK-4254,1 52998U 22076N   24145.42882814  .00001075  00000-0  85616-4 0  9996,2 52998  53.2151 151.1242 0001387  99.5953 260.5196 15.08851553104079,6917.845,95.437,540.67,538.751,0.0
52998.0,STARLINK-4254,PAYLOAD,2024-05-25 05:22:08,15.08838809,0.0001405,53.2167,147.5544,100.9685,259.1465,-3.5098e-05,-8.46e-06,0.0,0 STARLINK-4254,1 52998U 22076N   24146.22371452 -.00000846  00000-0 -35098-4 0  9992,2 52998  53.2167 147.5544 0001405 100.9685 259.1465 15.08838809104667,6917.884,95.438,540.721,538.777,0.0
52998.0,STARLINK-4254,PAYLOAD,2024-05-25 06:57:32,15.08838362,0.0001312,53.2163,147.2568,92.2315,267.8827,-2.7086e-05,-7.19e-06,0.0,0 STARLINK-4254,1 52998U 22076N   24146.28995483 -.00000719  00000-0 -27086-4 0  9991,2 52998  53.2163 147.2568 0001312  92.2315 267.8827 15.08838362104208,6917.885,95.438,540.658,538.843,0.0
52998.0,STARLINK-4254,PAYLOAD,2024-05-26 09:59:05,15.08839677,0.0001314,53.2163,142.2035,90.4514,269.6629,1.2323e-05,-9.2e-07,0.0,0 STARLINK-4254,1 52998U 22076N   24147.41603366 -.00000092  00000-0  12323-4 0  9994,2 52998  53.2163 142.2035 0001314  90.4514 269.6629 15.08839677104845,6917.881,95.438,540.655,538.837,0.0
52998.0,STARLINK-4254,PAYLOAD,2024-05-26 16:20:37,15.08843475,0.0001347,53.2161,141.0161,99.389,260.7254,2.2713e-05,7.4e-07,0.0,0 STARLINK-4254,1 52998U 22076N   24147.68098927  .00000074  00000-0  22713-4 0  9997,2 52998  53.2161 141.0161 0001347  99.3890 260.7254 15.08843475104411,6917.87,95.437,540.667,538.803,0.0
52998.0,STARLINK-4254,PAYLOAD,2024-05-27 05:03:42,15.08847611,0.0001576,53.218,138.6501,121.0945,239.0202,0.00010711,1.417e-05,0.0,0 STARLINK-4254,1 52998U 22076N   24148.21090727  .00001417  00000-0  10711-3 0  9993,2 52998  53.2180 138.6501 0001576 121.0945 239.0202 15.08847611104968,6917.857,95.437,540.812,538.632,0.0
52998.0,STARLINK-4254,PAYLOAD,2024-05-28 08:05:16,15.08841336,0.0001345,53.2163,133.58,94.7607,265.3538,7.6396e-05,9.28e-06,0.0,0 STARLINK-4254,1 52998U 22076N   24149.33699479  .00000928  00000-0  76396-4 0  9994,2 52998  53.2163 133.5800 0001345  94.7607 265.3538 15.08841336105132,6917.876,95.437,540.672,538.811,0.0
52998.0,STARLINK-4254,PAYLOAD,2024-05-29 06:20:40,15.08841404,0.0001361,53.2168,129.4129,88.9308,271.184,7.3466e-05,8.82e-06,0.0,0 STARLINK-4254,1 52998U 22076N   24150.26435394  .00000882  00000-0  73466-4 0  9996,2 52998  53.2168 129.4129 0001361  88.9308 271.1840 15.08841404104806,6917.876,95.437,540.683,538.8,0.0
52998.0,STARLINK-4254,PAYLOAD,2024-05-29 22:14:31,15.08844949,0.0001314,53.2166,126.4423,94.2573,265.8569,5.394e-05,5.71e-06,0.0,0 STARLINK-4254,1 52998U 22076N   24150.92675250  .00000571  00000-0  53940-4 0  9996,2 52998  53.2166 126.4423 0001314  94.2573 265.8569 15.08844949104906,6917.865,95.437,540.639,538.821,0.0
52998.0,STARLINK-4254,PAYLOAD,2024-05-30 04:36:03,15.08845636,0.0001322,53.2168,125.2532,93.72,266.3943,5.5213e-05,5.91e-06,0.0,0 STARLINK-4254,1 52998U 22076N   24151.19171125  .00000591  00000-0  55213-4 0  9995,2 52998  53.2168 125.2532 0001322  93.7200 266.3943 15.08845636105419,6917.863,95.437,540.643,538.814,0.0
52998.0,STARLINK-4254,PAYLOAD,2024-05-30 07:46:50,15.08845614,0.0001324,53.2168,124.6586,93.174,266.9404,5.3029e-05,5.56e-06,0.0,0 STARLINK-4254,1 52998U 22076N   24151.32419091  .00000556  00000-0  53029-4 0  9991,2 52998  53.2168 124.6586 0001324  93.1740 266.9404 15.08845614104969,6917.863,95.437,540.644,538.812,0.0
52998.0,STARLINK-4254,PAYLOAD,2024-05-31 04:26:51,15.08841204,0.0001329,53.2169,120.7927,93.9096,266.2048,2.4635e-05,1.04e-06,0.0,0 STARLINK-4254,1 52998U 22076N   24152.18531335  .00000104  00000-0  24635-4 0  9992,2 52998  53.2169 120.7927 0001329  93.9096 266.2048 15.08841204105568,6917.877,95.437,540.661,538.822,0.0
52998.0,STARLINK-4254,PAYLOAD,2024-05-31 07:37:37,15.08841504,0.0001327,53.2169,120.1979,94.659,265.4553,2.6181e-05,1.29e-06,0.0,0 STARLINK-4254,1 52998U 22076N   24152.31779290  .00000129  00000-0  26181-4 0  9996,2 52998  53.2169 120.1979 0001327  94.6590 265.4553 15.08841504105110,6917.876,95.437,540.659,538.823,0.0
52998.0,STARLINK-4254,PAYLOAD,2024-05-31 21:56:05,15.0882853,0.0001525,53.2185,117.5221,99.7177,260.3988,0.00019361,2.794e-05,0.0,0 STARLINK-4254,1 52998U 22076N   24152.91395543  .00002794  00000-0  19361-3 0  9998,2 52998  53.2185 117.5221 0001525  99.7177 260.3988 15.08828530105205,6917.915,95.438,540.835,538.725,0.0
52998.0,STARLINK-4254,PAYLOAD,2024-06-01 07:28:24,15.08836206,0.0001458,53.2184,115.7392,95.2627,264.8532,-9.3929e-06,-4.37e-06,0.0,0 STARLINK-4254,1 52998U 22076N   24153.31139714 -.00000437  00000-0 -93929-5 0  9997,2 52998  53.2184 115.7392 0001458  95.2627 264.8532 15.08836206105730,6917.892,95.438,540.766,538.748,0.0
52998.0,STARLINK-4254,PAYLOAD,2024-06-02 13:40:44,15.08839032,0.0001236,53.2177,110.0878,93.1938,266.9196,4.6113e-05,4.46e-06,0.0,0 STARLINK-4254,1 52998U 22076N   24154.56995721  .00000446  00000-0  46113-4 0  9993,2 52998  53.2177 110.0878 0001236  93.1938 266.9196 15.08839032105453,6917.883,95.438,540.603,538.893,0.0
52998.0,STARLINK-4254,PAYLOAD,2024-06-02 21:37:40,15.08830633,0.0001283,53.2195,108.6041,98.4118,261.7019,4.9276e-05,4.96e-06,0.0,0 STARLINK-4254,1 52998U 22076N   24154.90116365  .00000496  00000-0  49276-4 0  9998,2 52998  53.2195 108.6041 0001283  98.4118 261.7019 15.08830633105970,6917.909,95.438,540.662,538.886,0.0
52998.0,STARLINK-4254,PAYLOAD,2024-06-03 13:31:31,15.08844236,0.0001232,53.2187,105.6289,89.6426,270.4707,0.00013013,1.784e-05,0.0,0 STARLINK-4254,1 52998U 22076N   24155.56355546  .00001784  00000-0  13013-3 0  9997,2 52998  53.2187 105.6289 0001232  89.6426 270.4707 15.08844236105605,6917.867,95.437,540.585,538.88,0.0
